[{"OBJECT_NAME":"ONEWEB-0567","OBJECT_ID":"2023-004H","EPOCH":"2026-05-01T04:03:53.875584","MEAN_MOTION":13.18768029,"ECCENTRICITY":0.000149,"INCLINATION":87.9191,"RA_OF_ASC_NODE":344.8279,"ARG_OF_PERICENTER":74.0274,"MEAN_ANOMALY":286.1022,"EPHEMERIS_TYPE":0,"CLASSIFICATION_TYPE":"U","NORAD_CAT_ID":55147,"ELEMENT_SET_NO":999,"REV_AT_EPOCH":16350,"BSTAR":0.0002065,"MEAN_MOTION_DOT":9.4e-07,"MEAN_MOTION_DDOT":0.0},{"OBJECT_NAME":"ONEWEB-0569","OBJECT_ID":"2023-004J","EPOCH":"2026-05-01T01:59:07.614528","MEAN_MOTION":13.1347162,"ECCENTRICITY":0.0001718,"INCLINATION":87.8964,"RA_OF_ASC_NODE":329.6009,"ARG_OF_PERICENTER":55.3324,"MEAN_ANOMALY":304.7967,"EPHEMERIS_TYPE":0,"CLASSIFICATION_TYPE":"U","NORAD_CAT_ID":55148,"ELEMENT_SET_NO":999,"REV_AT_EPOCH":16399,"BSTAR":6.0057000000000005e-05,"MEAN_MOTION_DOT":3.5e-07,"MEAN_MOTION_DDOT":0.0},{"OBJECT_NAME":"ONEWEB-0570","OBJECT_ID":"2023-004K","EPOCH":"2026-05-01T03:51:36.528480","MEAN_MOTION":13.18565963,"ECCENTRICITY":0.0001459,"INCLINATION":87.9189,"RA_OF_ASC_NODE":344.8281,"ARG_OF_PERICENTER":95.0093,"MEAN_ANOMALY":265.1206,"EPHEMERIS_TYPE":0,"CLASSIFICATION_TYPE":"U","NORAD_CAT_ID":55149,"ELEMENT_SET_NO":999,"REV_AT_EPOCH":16349,"BSTAR":0.0047083,"MEAN_MOTION_DOT":1.866e-05,"MEAN_MOTION_DDOT":0.0},{"OBJECT_NAME":"ONEWEB-0571","OBJECT_ID":"2023-004L","EPOCH":"2026-05-01T03:41:54.400704","MEAN_MOTION":13.18584835,"ECCENTRICITY":0.0001181,"INCLINATION":87.9188,"RA_OF_ASC_NODE":344.8286,"ARG_OF_PERICENTER":45.0528,"MEAN_ANOMALY":315.0699,"EPHEMERIS_TYPE":0,"CLASSIFICATION_TYPE":"U","NORAD_CAT_ID":55150,"ELEMENT_SET_NO":999,"REV_AT_EPOCH":16350,"BSTAR":0.0042275,"MEAN_MOTION_DOT":1.677e-05,"MEAN_MOTION_DDOT":0.0},{"OBJECT_NAME":"ONEWEB-0572","OBJECT_ID":"2023-004M","EPOCH":"2026-05-01T03:14:38.640480","MEAN_MOTION":13.17648626,"ECCENTRICITY":0.0001609,"INCLINATION":87.9178,"RA_OF_ASC_NODE":15.2167,"ARG_OF_PERICENTER":77.1761,"MEAN_ANOMALY":282.955,"EPHEMERIS_TYPE":0,"CLASSIFICATION_TYPE":"U","NORAD_CAT_ID":55151,"ELEMENT_SET_NO":999,"REV_AT_EPOCH":16128,"BSTAR":0.00028195,"MEAN_MOTION_DOT":1.22e-06,"MEAN_MOTION_DDOT":0.0},{"OBJECT_NAME":"ONEWEB-0573","OBJECT_ID":"2023-004N","EPOCH":"2026-05-01T03:32:13.468704","MEAN_MOTION":13.18593341,"ECCENTRICITY":9.49e-05,"INCLINATION":87.9185,"RA_OF_ASC_NODE":344.8311,"ARG_OF_PERICENTER":82.4015,"MEAN_ANOMALY":277.7225,"EPHEMERIS_TYPE":0,"CLASSIFICATION_TYPE":"U","NORAD_CAT_ID":55152,"ELEMENT_SET_NO":999,"REV_AT_EPOCH":16349,"BSTAR":0.00018294,"MEAN_MOTION_DOT":8.5e-07,"MEAN_MOTION_DDOT":0.0},{"OBJECT_NAME":"ONEWEB-0588","OBJECT_ID":"2023-004P","EPOCH":"2026-05-01T03:22:31.123200","MEAN_MOTION":13.18615624,"ECCENTRICITY":0.0001358,"INCLINATION":87.9189,"RA_OF_ASC_NODE":344.833,"ARG_OF_PERICENTER":97.6544,"MEAN_ANOMALY":262.4742,"EPHEMERIS_TYPE":0,"CLASSIFICATION_TYPE":"U","NORAD_CAT_ID":55153,"ELEMENT_SET_NO":999,"REV_AT_EPOCH":16349,"BSTAR":0.00040187,"MEAN_MOTION_DOT":1.71e-06,"MEAN_MOTION_DDOT":0.0},{"OBJECT_NAME":"ONEWEB-0598","OBJECT_ID":"2023-004Q","EPOCH":"2026-05-01T03:52:29.184960","MEAN_MOTION":13.11415787,"ECCENTRICITY":0.000164,"INCLINATION":87.8924,"RA_OF_ASC_NODE":30.4199,"ARG_OF_PERICENTER":53.9835,"MEAN_ANOMALY":306.1445,"EPHEMERIS_TYPE":0,"CLASSIFICATION_TYPE":"U","NORAD_CAT_ID":55154,"ELEMENT_SET_NO":999,"REV_AT_EPOCH":15973,"BSTAR":-0.0013097,"MEAN_MOTION_DOT":-4.51e-06,"MEAN_MOTION_DDOT":0.0},{"OBJECT_NAME":"ONEWEB-0599","OBJECT_ID":"2023-004R","EPOCH":"2026-05-01T04:08:06.439200","MEAN_MOTION":13.17648942,"ECCENTRICITY":0.0001956,"INCLINATION":87.9179,"RA_OF_ASC_NODE":15.2079,"ARG_OF_PERICENTER":74.5626,"MEAN_ANOMALY":285.5721,"EPHEMERIS_TYPE":0,"CLASSIFICATION_TYPE":"U","NORAD_CAT_ID":55155,"ELEMENT_SET_NO":999,"REV_AT_EPOCH":16129,"BSTAR":0.00018982,"MEAN_MOTION_DOT":8.7e-07,"MEAN_MOTION_DDOT":0.0},{"OBJECT_NAME":"ONEWEB-0614","OBJECT_ID":"2023-004S","EPOCH":"2026-04-30T16:45:57.024288","MEAN_MOTION":13.11417679,"ECCENTRICITY":0.000177,"INCLINATION":87.8926,"RA_OF_ASC_NODE":30.5203,"ARG_OF_PERICENTER":85.7993,"MEAN_ANOMALY":274.3337,"EPHEMERIS_TYPE":0,"CLASSIFICATION_TYPE":"U","NORAD_CAT_ID":55156,"ELEMENT_SET_NO":999,"REV_AT_EPOCH":15961,"BSTAR":-0.0014646000000000001,"MEAN_MOTION_DOT":-5.06e-06,"MEAN_MOTION_DDOT":0.0},{"OBJECT_NAME":"ONEWEB-0616","OBJECT_ID":"2023-004T","EPOCH":"2026-05-01T03:19:30.385632","MEAN_MOTION":13.17649048,"ECCENTRICITY":0.0002658,"INCLINATION":87.9177,"RA_OF_ASC_NODE":15.2173,"ARG_OF_PERICENTER":69.8556,"MEAN_ANOMALY":290.2862,"EPHEMERIS_TYPE":0,"CLASSIFICATION_TYPE":"U","NORAD_CAT_ID":55157,"ELEMENT_SET_NO":999,"REV_AT_EPOCH":16150,"BSTAR":0.00015898000000000003,"MEAN_MOTION_DOT":7.5e-07,"MEAN_MOTION_DDOT":0.0},{"OBJECT_NAME":"ONEWEB-0617","OBJECT_ID":"2023-004U","EPOCH":"2026-05-01T05:17:55.677984","MEAN_MOTION":13.11416754,"ECCENTRICITY":0.0001563,"INCLINATION":87.8928,"RA_OF_ASC_NODE":30.4055,"ARG_OF_PERICENTER":91.7544,"MEAN_ANOMALY":268.3763,"EPHEMERIS_TYPE":0,"CLASSIFICATION_TYPE":"U","NORAD_CAT_ID":55158,"ELEMENT_SET_NO":999,"REV_AT_EPOCH":15970,"BSTAR":-0.00038265,"MEAN_MOTION_DOT":-1.23e-06,"MEAN_MOTION_DDOT":0.0},{"OBJECT_NAME":"ONEWEB-0618","OBJECT_ID":"2023-004V","EPOCH":"2026-05-01T07:07:28.499232","MEAN_MOTION":15.1274037,"ECCENTRICITY":0.001527,"INCLINATION":86.9138,"RA_OF_ASC_NODE":196.6548,"ARG_OF_PERICENTER":106.4634,"MEAN_ANOMALY":253.8285,"EPHEMERIS_TYPE":0,"CLASSIFICATION_TYPE":"U","NORAD_CAT_ID":55159,"ELEMENT_SET_NO":999,"REV_AT_EPOCH":17517,"BSTAR":0.00043042000000000004,"MEAN_MOTION_DOT":7.594e-05,"MEAN_MOTION_DDOT":0.0},{"OBJECT_NAME":"ONEWEB-0619","OBJECT_ID":"2023-004W","EPOCH":"2026-05-01T04:05:40.412832","MEAN_MOTION":13.17649945,"ECCENTRICITY":0.0002117,"INCLINATION":87.919,"RA_OF_ASC_NODE":15.1878,"ARG_OF_PERICENTER":90.1975,"MEAN_ANOMALY":269.94,"EPHEMERIS_TYPE":0,"CLASSIFICATION_TYPE":"U","NORAD_CAT_ID":55160,"ELEMENT_SET_NO":999,"REV_AT_EPOCH":16140,"BSTAR":0.00014945,"MEAN_MOTION_DOT":7.1e-07,"MEAN_MOTION_DDOT":0.0},{"OBJECT_NAME":"ONEWEB-0620","OBJECT_ID":"2023-004X","EPOCH":"2026-05-01T07:00:28.876896","MEAN_MOTION":13.11415904,"ECCENTRICITY":0.0001561,"INCLINATION":87.8922,"RA_OF_ASC_NODE":30.4026,"ARG_OF_PERICENTER":74.2451,"MEAN_ANOMALY":285.8849,"EPHEMERIS_TYPE":0,"CLASSIFICATION_TYPE":"U","NORAD_CAT_ID":55161,"ELEMENT_SET_NO":999,"REV_AT_EPOCH":15968,"BSTAR":0.00014481,"MEAN_MOTION_DOT":6.4e-07,"MEAN_MOTION_DDOT":0.0},{"OBJECT_NAME":"ONEWEB-0621","OBJECT_ID":"2023-004Y","EPOCH":"2026-05-01T03:59:47.776416","MEAN_MOTION":13.11419183,"ECCENTRICITY":0.0001798,"INCLINATION":87.8935,"RA_OF_ASC_NODE":30.4121,"ARG_OF_PERICENTER":86.5782,"MEAN_ANOMALY":273.5551,"EPHEMERIS_TYPE":0,"CLASSIFICATION_TYPE":"U","NORAD_CAT_ID":55162,"ELEMENT_SET_NO":999,"REV_AT_EPOCH":15964,"BSTAR":-0.0010607,"MEAN_MOTION_DOT":-3.63e-06,"MEAN_MOTION_DDOT":0.0},{"OBJECT_NAME":"ONEWEB-0622","OBJECT_ID":"2023-004Z","EPOCH":"2026-05-01T04:07:07.783104","MEAN_MOTION":13.11419921,"ECCENTRICITY":0.0001274,"INCLINATION":87.8939,"RA_OF_ASC_NODE":30.4129,"ARG_OF_PERICENTER":99.1911,"MEAN_ANOMALY":260.9361,"EPHEMERIS_TYPE":0,"CLASSIFICATION_TYPE":"U","NORAD_CAT_ID":55163,"ELEMENT_SET_NO":999,"REV_AT_EPOCH":15963,"BSTAR":-0.0005743500000000001,"MEAN_MOTION_DOT":-1.91e-06,"MEAN_MOTION_DDOT":0.0},{"OBJECT_NAME":"ONEWEB-0623","OBJECT_ID":"2023-004AA","EPOCH":"2026-05-01T03:58:22.568736","MEAN_MOTION":13.1764876,"ECCENTRICITY":0.0001845,"INCLINATION":87.9179,"RA_OF_ASC_NODE":15.2248,"ARG_OF_PERICENTER":105.5726,"MEAN_ANOMALY":254.561,"EPHEMERIS_TYPE":0,"CLASSIFICATION_TYPE":"U","NORAD_CAT_ID":55164,"ELEMENT_SET_NO":999,"REV_AT_EPOCH":16139,"BSTAR":0.00026659,"MEAN_MOTION_DOT":1.16e-06,"MEAN_MOTION_DDOT":0.0},{"OBJECT_NAME":"ONEWEB-0624","OBJECT_ID":"2023-004AB","EPOCH":"2026-05-01T04:10:25.944960","MEAN_MOTION":13.12927861,"ECCENTRICITY":0.0001786,"INCLINATION":87.8986,"RA_OF_ASC_NODE":359.9379,"ARG_OF_PERICENTER":88.5565,"MEAN_ANOMALY":271.5769,"EPHEMERIS_TYPE":0,"CLASSIFICATION_TYPE":"U","NORAD_CAT_ID":55165,"ELEMENT_SET_NO":999,"REV_AT_EPOCH":16190,"BSTAR":0.0004688,"MEAN_MOTION_DOT":1.83e-06,"MEAN_MOTION_DDOT":0.0},{"OBJECT_NAME":"ONEWEB-0625","OBJECT_ID":"2023-004AC","EPOCH":"2026-05-01T03:43:48.296640","MEAN_MOTION":13.17649697,"ECCENTRICITY":0.000194,"INCLINATION":87.918,"RA_OF_ASC_NODE":15.2213,"ARG_OF_PERICENTER":79.2341,"MEAN_ANOMALY":280.9009,"EPHEMERIS_TYPE":0,"CLASSIFICATION_TYPE":"U","NORAD_CAT_ID":55166,"ELEMENT_SET_NO":999,"REV_AT_EPOCH":16138,"BSTAR":0.00023409,"MEAN_MOTION_DOT":1.04e-06,"MEAN_MOTION_DDOT":0.0},{"OBJECT_NAME":"ONEWEB-0626","OBJECT_ID":"2023-004AD","EPOCH":"2026-05-01T03:29:12.452064","MEAN_MOTION":13.17648368,"ECCENTRICITY":0.0001527,"INCLINATION":87.9179,"RA_OF_ASC_NODE":15.2231,"ARG_OF_PERICENTER":67.7304,"MEAN_ANOMALY":292.3989,"EPHEMERIS_TYPE":0,"CLASSIFICATION_TYPE":"U","NORAD_CAT_ID":55167,"ELEMENT_SET_NO":999,"REV_AT_EPOCH":16138,"BSTAR":0.00030894,"MEAN_MOTION_DOT":1.33e-06,"MEAN_MOTION_DDOT":0.0},{"OBJECT_NAME":"ONEWEB-0627","OBJECT_ID":"2023-004AE","EPOCH":"2026-05-01T03:12:12.805920","MEAN_MOTION":13.17648407,"ECCENTRICITY":0.0001806,"INCLINATION":87.9178,"RA_OF_ASC_NODE":15.2257,"ARG_OF_PERICENTER":98.2726,"MEAN_ANOMALY":261.8611,"EPHEMERIS_TYPE":0,"CLASSIFICATION_TYPE":"U","NORAD_CAT_ID":55168,"ELEMENT_SET_NO":999,"REV_AT_EPOCH":16138,"BSTAR":0.00024642,"MEAN_MOTION_DOT":1.09e-06,"MEAN_MOTION_DDOT":0.0},{"OBJECT_NAME":"ONEWEB-0628","OBJECT_ID":"2023-004AF","EPOCH":"2026-05-01T03:18:41.432256","MEAN_MOTION":13.12442978,"ECCENTRICITY":0.0001956,"INCLINATION":87.8992,"RA_OF_ASC_NODE":0.0039,"ARG_OF_PERICENTER":103.3713,"MEAN_ANOMALY":256.7633,"EPHEMERIS_TYPE":0,"CLASSIFICATION_TYPE":"U","NORAD_CAT_ID":55169,"ELEMENT_SET_NO":999,"REV_AT_EPOCH":16186,"BSTAR":-0.00025080999999999997,"MEAN_MOTION_DOT":-7.8e-07,"MEAN_MOTION_DDOT":0.0}]